MALLIGYONG-1            
1 58400U 23179A   24249.14389161  .00012335  00000+0  53474-3 0  9992
2 58400  97.3903 134.6474 0000573 120.2728 239.8565 15.22509456 43886
